IRIDIUM 112             
1 41925U 17003J   23307.88623863  .00000174  00000+0  54926-4 0  9992
2 41925  86.3936 128.0007 0002139  83.9323 276.2117 14.34218707356208
IRIDIUM 111             
1 41926U 17003K   23307.87355879  .00000164  00000+0  51496-4 0  9999
2 41926  86.3939 128.0557 0001806  90.4358 269.7045 14.34218242356181
IRIDIUM 113             
1 42803U 17039A   23307.85350739  .00000422  00000+0  14350-3 0  9995
2 42803  86.4010   1.8092 0001976  90.1102 270.0320 14.34218784334112
IRIDIUM 123             
1 42804U 17039B   23307.75544081  .00000142  00000+0  43566-4 0  9991
2 42804  86.4014  33.3340 0001957  89.0926 271.0494 14.34212532332861
IRIDIUM 120             
1 42805U 17039C   23307.91693551  .00000401  00000+0  13622-3 0  9994
2 42805  86.3999   1.6892 0002052  93.8442 266.2988 14.34217846334113
IRIDIUM 115             
1 42806U 17039D   23308.18565754  .00000613  00000+0  17604-3 0  9997
2 42806  86.4537   1.5687 0001943  97.3931 262.7491 14.43375687336372
IRIDIUM 118             
1 42807U 17039E   23307.78716380  .00000385  00000+0  13044-3 0  9996
2 42807  86.4014  33.3230 0002083  93.6921 266.4513 14.34215464332866
IRIDIUM 117             
1 42808U 17039F   23307.94572779  .00000145  00000+0  44861-4 0  9993
2 42808  86.4010  33.2229 0001998  97.9305 262.2117 14.34218516332929
